NORAD_CAT_ID,OBJECT_NAME,OBJECT_TYPE,EPOCH,MEAN_MOTION,ECCENTRICITY,INCLINATION,RA_OF_ASC_NODE,ARG_OF_PERICENTER,MEAN_ANOMALY,BSTAR,MEAN_MOTION_DOT,MEAN_MOTION_DDOT,TLE_LINE0,TLE_LINE1,TLE_LINE2,SEMIMAJOR_AXIS,PERIOD,APOGEE,PERIGEE,DECAYED
55676.0,STARLINK-5300,PAYLOAD,2023-03-31 20:08:18,15.69907857,0.0003528,70.0008,31.6335,259.4797,100.6002,-2.6081e-05,-3.346e-05,0.0,0 STARLINK-5300,1 55676U 23021BA  23090.83910252 -.00003346  00000-0 -26081-4 0  9990,2 55676  70.0008  31.6335 0003528 259.4797 100.6002 15.69907857  7146,6737.298,91.725,361.54,356.786,0.0
55676.0,STARLINK-5300,PAYLOAD,2023-04-01 05:18:48,15.6992595,0.0003156,70.0015,30.5608,261.8531,98.2307,2.5507e-05,2.856e-05,0.0,0 STARLINK-5300,1 55676U 23021BA  23091.22140045  .00002856  00000-0  25507-4 0  9994,2 55676  70.0015  30.5608 0003156 261.8531  98.2307 15.69925950  7206,6737.246,91.724,361.237,356.985,0.0
55676.0,STARLINK-5300,PAYLOAD,2023-04-01 20:36:19,15.6994943,0.00037,70.0012,28.7723,268.1625,91.9147,7.2378e-05,8.508e-05,0.0,0 STARLINK-5300,1 55676U 23021BA  23091.85855724  .00008508  00000-0  72378-4 0  9998,2 55676  70.0012  28.7723 0003700 268.1625  91.9147 15.69949430  7615,6737.179,91.723,361.536,356.551,0.0
55676.0,STARLINK-5300,PAYLOAD,2023-04-02 05:46:49,15.69927295,0.0003013,70.0032,27.6979,264.327,95.7582,-6.4933e-05,-8.013e-05,0.0,0 STARLINK-5300,1 55676U 23021BA  23092.24085318 -.00008013  00000-0 -64933-4 0  9997,2 55676  70.0032  27.6979 0003013 264.3270  95.7582 15.69927295  7361,6737.242,91.724,361.137,357.077,0.0
55676.0,STARLINK-5300,PAYLOAD,2023-04-02 07:18:34,15.69934844,0.0002887,70.0022,27.5179,279.6197,80.4672,-3.2997e-05,-4.179e-05,0.0,0 STARLINK-5300,1 55676U 23021BA  23092.30456936 -.00004179  00000-0 -32997-4 0  9996,2 55676  70.0022  27.5179 0002887 279.6197  80.4672 15.69934844  7680,6737.22,91.724,361.03,357.14,0.0
55676.0,STARLINK-5300,PAYLOAD,2023-04-03 04:43:07,15.69901132,0.0003704,70.0011,25.0095,267.7562,92.321,-8.7866e-05,-0.00010755,0.0,0 STARLINK-5300,1 55676U 23021BA  23093.19661413 -.00010755  00000-0 -87866-4 0  9994,2 55676  70.0011  25.0095 0003704 267.7562  92.3210 15.69901132  7517,6737.317,91.726,361.677,356.686,0.0
55676.0,STARLINK-5300,PAYLOAD,2023-04-03 21:32:23,15.69916363,0.0004049,70.001,23.0385,266.0028,94.0705,3.6473e-06,2.25e-06,0.0,0 STARLINK-5300,1 55676U 23021BA  23093.89749866  .00000225  00000-0  36473-5 0  9998,2 55676  70.0010  23.0385 0004049 266.0028  94.0705 15.69916363  7934,6737.273,91.725,361.866,356.41,0.0
55676.0,STARLINK-5300,PAYLOAD,2023-04-04 05:11:10,15.69909559,0.0002735,70.0027,22.144,258.5758,101.5131,5.2747e-05,6.13e-05,0.0,0 STARLINK-5300,1 55676U 23021BA  23094.21609106  .00006130  00000-0  52747-4 0  9999,2 55676  70.0027  22.1440 0002735 258.5758 101.5131 15.69909559  7677,6737.293,91.725,361.0,357.315,0.0
55676.0,STARLINK-5300,PAYLOAD,2023-04-04 06:42:55,15.69915444,0.0002976,70.0022,21.9636,264.5223,95.5634,7.9368e-05,9.337e-05,0.0,0 STARLINK-5300,1 55676U 23021BA  23094.27980629  .00009337  00000-0  79368-4 0  9997,2 55676  70.0022  21.9636 0002976 264.5223  95.5634 15.69915444  7992,6737.276,91.725,361.146,357.136,0.0
55676.0,STARLINK-5300,PAYLOAD,2023-04-04 22:00:26,15.69921517,0.0002786,70.0032,20.172,264.3159,95.7719,2.8857e-05,3.258e-05,0.0,0 STARLINK-5300,1 55676U 23021BA  23094.91697464  .00003258  00000-0  28857-4 0  9993,2 55676  70.0032  20.1720 0002786 264.3159  95.7719 15.69921517  8099,6737.259,91.724,361.001,357.247,0.0
55676.0,STARLINK-5300,PAYLOAD,2023-04-05 05:39:12,15.6992704,0.0002575,70.003,19.2799,268.1616,91.9285,3.8911e-05,4.469e-05,0.0,0 STARLINK-5300,1 55676U 23021BA  23095.23555802  .00004469  00000-0  38911-4 0  9995,2 55676  70.0030  19.2799 0002575 268.1616  91.9285 15.69927040  7832,6737.243,91.724,360.843,357.373,0.0
55676.0,STARLINK-5300,PAYLOAD,2023-04-05 20:56:43,15.69919812,0.0003644,70.0031,17.4901,264.0801,95.9979,2.1792e-05,2.408e-05,0.0,0 STARLINK-5300,1 55676U 23021BA  23095.87272492  .00002408  00000-0  21792-4 0  9996,2 55676  70.0031  17.4901 0003644 264.0801  95.9979 15.69919812  8245,6737.263,91.724,361.583,356.673,0.0
55676.0,STARLINK-5300,PAYLOAD,2023-04-05 22:28:28,15.69912458,0.0003988,70.0032,17.3108,276.006,84.0681,5.986e-06,5.07e-06,0.0,0 STARLINK-5300,1 55676U 23021BA  23095.93644460  .00000507  00000-0  59860-5 0  9997,2 55676  70.0032  17.3108 0003988 276.0060  84.0681 15.69912458  7949,6737.284,91.725,361.836,356.463,0.0
55676.0,STARLINK-5300,PAYLOAD,2023-04-06 06:07:14,15.69932588,0.0002812,70.0048,16.4132,259.3814,100.7065,6.785e-05,7.956e-05,0.0,0 STARLINK-5300,1 55676U 23021BA  23096.25502451  .00007956  00000-0  67850-4 0  9998,2 55676  70.0048  16.4132 0002812 259.3814 100.7065 15.69932588  7992,6737.227,91.724,360.986,357.197,0.0
55676.0,STARLINK-5300,PAYLOAD,2023-04-07 05:03:31,15.69932688,0.0002038,70.0035,13.7256,279.0904,81.0061,6.095e-05,7.124e-05,0.0,0 STARLINK-5300,1 55676U 23021BA  23097.21077964  .00007124  00000-0  60950-4 0  9992,2 55676  70.0035  13.7256 0002038 279.0904  81.0061 15.69932688  8140,6737.227,91.724,360.465,357.719,0.0
55676.0,STARLINK-5300,PAYLOAD,2023-04-08 03:59:48,15.69908353,0.0002547,70.0032,11.041,271.2234,88.867,-7.2196e-05,-8.877e-05,0.0,0 STARLINK-5300,1 55676U 23021BA  23098.16653207 -.00008877  00000-0 -72196-4 0  9990,2 55676  70.0032  11.0410 0002547 271.2234  88.8670 15.69908353  8294,6737.296,91.725,360.877,357.445,0.0
55676.0,STARLINK-5300,PAYLOAD,2023-04-08 13:10:18,15.69926147,0.0003404,70.0025,9.9637,268.736,91.3446,5.5133e-05,6.422e-05,0.0,0 STARLINK-5300,1 55676U 23021BA  23098.54882564  .00006422  00000-0  55133-4 0  9996,2 55676  70.0025   9.9637 0003404 268.7360  91.3446 15.69926147  8355,6737.245,91.724,361.404,356.817,0.0
55676.0,STARLINK-5300,PAYLOAD,2023-04-09 01:24:19,15.69935126,0.0002955,70.0026,8.5302,260.7727,99.3135,2.6337e-05,2.957e-05,0.0,0 STARLINK-5300,1 55676U 23021BA  23099.05855341  .00002957  00000-0  26337-4 0  9999,2 55676  70.0026   8.5302 0002955 260.7727  99.3135 15.69935126  8742,6737.22,91.724,361.075,357.094,0.0
55676.0,STARLINK-5300,PAYLOAD,2023-04-09 19:45:21,15.69923561,0.0003325,70.0017,6.3802,269.996,90.0855,1.0832e-05,1.09e-05,0.0,0 STARLINK-5300,1 55676U 23021BA  23099.82316062  .00001090  00000-0  10832-4 0  9996,2 55676  70.0017   6.3802 0003325 269.9960  90.0855 15.69923561  8551,6737.253,91.724,361.358,356.878,0.0
55676.0,STARLINK-5300,PAYLOAD,2023-04-10 03:24:06,15.69932424,0.000313,70.0022,5.4849,270.9713,89.1124,4.5921e-05,5.314e-05,0.0,0 STARLINK-5300,1 55676U 23021BA  23100.14174258  .00005314  00000-0  45921-4 0  9993,2 55676  70.0022   5.4849 0003130 270.9713  89.1124 15.69932424  8602,6737.227,91.724,361.201,356.984,0.0
55676.0,STARLINK-5300,PAYLOAD,2023-04-10 20:13:22,15.69930059,0.0003554,70.0009,3.5129,265.8178,94.2611,3.4284e-05,3.913e-05,0.0,0 STARLINK-5300,1 55676U 23021BA  23100.84262585  .00003913  00000-0  34284-4 0  9994,2 55676  70.0009   3.5129 0003554 265.8178  94.2611 15.69930059  8717,6737.234,91.724,361.494,356.705,0.0
55676.0,STARLINK-5300,PAYLOAD,2023-04-11 03:52:08,15.69935939,0.0003333,70.0021,2.6197,262.0657,98.016,3.2352e-05,3.681e-05,0.0,0 STARLINK-5300,1 55676U 23021BA  23101.16120745  .00003681  00000-0  32352-4 0  9997,2 55676  70.0021   2.6197 0003333 262.0657  98.0160 15.69935939  9075,6737.217,91.723,361.328,356.837,0.0
55676.0,STARLINK-5300,PAYLOAD,2023-04-12 02:48:25,15.69925918,0.0003449,70.0001,359.9296,269.4812,90.5989,4.1785e-05,4.815e-05,0.0,0 STARLINK-5300,1 55676U 23021BA  23102.11695987  .00004815  00000-0  41785-4 0  9998,2 55676  70.0001 359.9296 0003449 269.4812  90.5989 15.69925918  8917,6737.246,91.724,361.435,356.787,0.0
55676.0,STARLINK-5300,PAYLOAD,2023-04-12 16:34:11,15.69918146,0.0003072,69.9998,358.3186,266.6535,93.431,1.356e-05,1.418e-05,0.0,0 STARLINK-5300,1 55676U 23021BA  23102.69041458  .00001418  00000-0  13560-4 0  9995,2 55676  69.9998 358.3186 0003072 266.6535  93.4310 15.69918146  9009,6737.268,91.725,361.203,357.063,0.0
55676.0,STARLINK-5300,PAYLOAD,2023-04-13 03:16:27,15.69936836,0.0003485,70.0001,357.0648,250.6756,109.4063,4.8722e-05,5.653e-05,0.0,0 STARLINK-5300,1 55676U 23021BA  23103.13642725  .00005653  00000-0  48722-4 0  9992,2 55676  70.0001 357.0648 0003485 250.6756 109.4063 15.69936836  9382,6737.215,91.723,361.428,356.732,0.0
55676.0,STARLINK-5300,PAYLOAD,2023-04-14 02:12:43,15.69937918,0.0003511,69.9989,354.3761,270.8026,89.2767,3.4423e-05,3.931e-05,0.0,0 STARLINK-5300,1 55676U 23021BA  23104.09217253  .00003931  00000-0  34423-4 0  9992,2 55676  69.9989 354.3761 0003511 270.8026  89.2767 15.69937918  9225,6737.212,91.723,361.442,356.711,0.0
55676.0,STARLINK-5300,PAYLOAD,2023-04-14 15:58:30,15.69922866,0.0003124,70.0002,352.7639,270.5603,89.5235,2.3321e-05,2.592e-05,0.0,0 STARLINK-5300,1 55676U 23021BA  23104.66563298  .00002592  00000-0  23321-4 0  9995,2 55676  70.0002 352.7639 0003124 270.5603  89.5235 15.69922866  9317,6737.255,91.724,361.224,357.015,0.0
55676.0,STARLINK-5300,PAYLOAD,2023-04-15 02:40:46,15.69915982,0.0003216,70.0005,351.5102,267.7177,92.365,1.3437e-05,1.403e-05,0.0,0 STARLINK-5300,1 55676U 23021BA  23105.11165072  .00001403  00000-0  13437-4 0  9991,2 55676  70.0005 351.5102 0003216 267.7177  92.3650 15.69915982  9693,6737.274,91.725,361.306,356.973,0.0
55676.0,STARLINK-5300,PAYLOAD,2023-04-15 22:33:32,15.69944727,0.0003497,70.0004,349.1807,263.5539,96.5259,0.00012872,0.00015306,0.0,0 STARLINK-5300,1 55676U 23021BA  23105.93996326  .00015306  00000-0  12872-3 0  9993,2 55676  70.0004 349.1807 0003497 263.5539  96.5259 15.69944727  9829,6737.192,91.723,361.413,356.701,0.0
55676.0,STARLINK-5300,PAYLOAD,2023-04-16 13:51:04,15.69935946,0.0002647,70.0023,347.3893,264.1161,95.9733,0.00015821,0.00018861,0.0,0 STARLINK-5300,1 55676U 23021BA  23106.57713581  .00018861  00000-0  15821-3 0  9990,2 55676  70.0023 347.3893 0002647 264.1161  95.9733 15.69935946  9619,6737.217,91.723,360.866,357.299,0.0
